{
  "type": "FeatureCollection",
  "features": [
    {
      "type": "Feature",
      "properties": {
        "norad_id": 34554,
        "name": "COSMOS 2251 DEB",
        "group": "cosmos-2251-debris",
        "lat": -49.47226709547353,
        "lon": 151.3536249855462,
        "alt_km": 784.9247077399568,
        "timestamp": "2025-12-05T18:53:13.676288+00:00",
        "meta_object_name": "COSMOS 2251 DEB",
        "meta_object_id": "1993-036UQ",
        "meta_epoch": "2025-12-04T23:42:19.325952",
        "meta_mean_motion": 14.37912452,
        "meta_eccentricity": 0.0022634,
        "meta_inclination": 74.0382,
        "meta_ra_of_asc_node": 313.2655,
        "meta_arg_of_pericenter": 17.4579,
        "meta_mean_anomaly": 39.2705,
        "meta_ephemeris_type": 0,
        "meta_classification_type": "U",
        "meta_norad_cat_id": 34554,
        "meta_element_set_no": 999,
        "meta_rev_at_epoch": 87644,
        "meta_bstar": 0.0006467,
        "meta_mean_motion_dot": 1.933e-05,
        "meta_mean_motion_ddot": 0,
        "tle_line1": "1 34554U 93036UQ  25338.98772368  .00001933  00000+0  64670-3 0  9994",
        "tle_line2": "2 34554  74.0382 313.2655 0022634  17.4579  39.2705 14.37912452876445"
      },
      "geometry": {
        "type": "Point",
        "coordinates": [
          151.3536249855462,
          -49.47226709547353
        ]
      }
    },
    {
      "type": "Feature",
      "properties": {
        "norad_id": 34556,
        "name": "COSMOS 2251 DEB",
        "group": "cosmos-2251-debris",
        "lat": 58.06417349708738,
        "lon": -68.8640255355984,
        "alt_km": 630.2330945458107,
        "timestamp": "2025-12-05T18:53:13.676298+00:00",
        "meta_object_name": "COSMOS 2251 DEB",
        "meta_object_id": "1993-036US",
        "meta_epoch": "2025-12-04T21:47:55.054176",
        "meta_mean_motion": 14.77407402,
        "meta_eccentricity": 0.000888,
        "meta_inclination": 74.0149,
        "meta_ra_of_asc_node": 140.2413,
        "meta_arg_of_pericenter": 199.1937,
        "meta_mean_anomaly": 287.2833,
        "meta_ephemeris_type": 0,
        "meta_classification_type": "U",
        "meta_norad_cat_id": 34556,
        "meta_element_set_no": 999,
        "meta_rev_at_epoch": 88213,
        "meta_bstar": 0.0045476,
        "meta_mean_motion_dot": 0.00032511,
        "meta_mean_motion_ddot": 0,
        "tle_line1": "1 34556U 93036US  25338.90827609  .00032511  00000+0  45476-2 0  9995",
        "tle_line2": "2 34556  74.0149 140.2413 0008880 199.1937 287.2833 14.77407402882139"
      },
      "geometry": {
        "type": "Point",
        "coordinates": [
          -68.8640255355984,
          58.06417349708738
        ]
      }
    },
    {
      "type": "Feature",
      "properties": {
        "norad_id": 34560,
        "name": "COSMOS 2251 DEB",
        "group": "cosmos-2251-debris",
        "lat": 26.693960357527743,
        "lon": -32.61407273529392,
        "alt_km": 652.7787941537517,
        "timestamp": "2025-12-05T18:53:13.676307+00:00",
        "meta_object_name": "COSMOS 2251 DEB",
        "meta_object_id": "1993-036UW",
        "meta_epoch": "2025-12-03T06:37:21.000000",
        "meta_mean_motion": 14.71719361,
        "meta_eccentricity": 0.0015384,
        "meta_inclination": 74.0159,
        "meta_ra_of_asc_node": 160.5584,
        "meta_arg_of_pericenter": 241.2457,
        "meta_mean_anomaly": 292.2217,
        "meta_ephemeris_type": 0,
        "meta_classification_type": "U",
        "meta_norad_cat_id": 34560,
        "meta_element_set_no": 999,
        "meta_rev_at_epoch": 88112,
        "meta_bstar": 0.0026421,
        "meta_mean_motion_dot": 0.00016519,
        "meta_mean_motion_ddot": 0,
        "tle_line1": "1 34560U 93036UW  25337.27593750  .00016519  00000+0  26421-2 0  9995",
        "tle_line2": "2 34560  74.0159 160.5584 0015384 241.2457 292.2217 14.71719361881126"
      },
      "geometry": {
        "type": "Point",
        "coordinates": [
          -32.61407273529392,
          26.693960357527743
        ]
      }
    },
    {
      "type": "Feature",
      "properties": {
        "norad_id": 34563,
        "name": "COSMOS 2251 DEB",
        "group": "cosmos-2251-debris",
        "lat": -14.474472977195482,
        "lon": 40.92544797453657,
        "alt_km": 745.748230253801,
        "timestamp": "2025-12-05T18:53:13.676317+00:00",
        "meta_object_name": "COSMOS 2251 DEB",
        "meta_object_id": "1993-036UZ",
        "meta_epoch": "2025-12-05T01:57:01.480896",
        "meta_mean_motion": 14.46472313,
        "meta_eccentricity": 0.00137947,
        "meta_inclination": 74.0385,
        "meta_ra_of_asc_node": 218.0054,
        "meta_arg_of_pericenter": 312.3033,
        "meta_mean_anomaly": 169.5047,
        "meta_ephemeris_type": 0,
        "meta_classification_type": "U",
        "meta_norad_cat_id": 34563,
        "meta_element_set_no": 999,
        "meta_rev_at_epoch": 88086,
        "meta_bstar": 0.0010066581,
        "meta_mean_motion_dot": 3.6e-05,
        "meta_mean_motion_ddot": 0,
        "tle_line1": "1 34563U 93036UZ  25339.08126714  .00003600  00000+0  10067-2 0  9997",
        "tle_line2": "2 34563  74.0385 218.0054 0013794 312.3033 169.5047 14.46472313880866"
      },
      "geometry": {
        "type": "Point",
        "coordinates": [
          40.92544797453657,
          -14.474472977195482
        ]
      }
    },
    {
      "type": "Feature",
      "properties": {
        "norad_id": 34564,
        "name": "COSMOS 2251 DEB",
        "group": "cosmos-2251-debris",
        "lat": 56.76964038349295,
        "lon": 44.96066448957059,
        "alt_km": 757.8180014057525,
        "timestamp": "2025-12-05T18:53:13.676327+00:00",
        "meta_object_name": "COSMOS 2251 DEB",
        "meta_object_id": "1993-036VA",
        "meta_epoch": "2025-12-05T03:39:13.180896",
        "meta_mean_motion": 14.40669799,
        "meta_eccentricity": 0.00187072,
        "meta_inclination": 74.0328,
        "meta_ra_of_asc_node": 252.0487,
        "meta_arg_of_pericenter": 357.3834,
        "meta_mean_anomaly": 71.2839,
        "meta_ephemeris_type": 0,
        "meta_classification_type": "U",
        "meta_norad_cat_id": 34564,
        "meta_element_set_no": 999,
        "meta_rev_at_epoch": 87897,
        "meta_bstar": 0.000516424,
        "meta_mean_motion_dot": 1.626e-05,
        "meta_mean_motion_ddot": 0,
        "tle_line1": "1 34564U 93036VA  25339.15223589  .00001626  00000+0  51642-3 0  9995",
        "tle_line2": "2 34564  74.0328 252.0487 0018707 357.3834  71.2839 14.40669799878976"
      },
      "geometry": {
        "type": "Point",
        "coordinates": [
          44.96066448957059,
          56.76964038349295
        ]
      }
    },
    {
      "type": "Feature",
      "properties": {
        "norad_id": 34567,
        "name": "COSMOS 2251 DEB",
        "group": "cosmos-2251-debris",
        "lat": -39.99445994233395,
        "lon": 3.1851449027374,
        "alt_km": 768.5748735027337,
        "timestamp": "2025-12-05T18:53:13.676337+00:00",
        "meta_object_name": "COSMOS 2251 DEB",
        "meta_object_id": "1993-036VD",
        "meta_epoch": "2025-12-05T06:51:23.337792",
        "meta_mean_motion": 14.24004779,
        "meta_eccentricity": 0.00746234,
        "meta_inclination": 74.0399,
        "meta_ra_of_asc_node": 170.1957,
        "meta_arg_of_pericenter": 246.0221,
        "meta_mean_anomaly": 287.4397,
        "meta_ephemeris_type": 0,
        "meta_classification_type": "U",
        "meta_norad_cat_id": 34567,
        "meta_element_set_no": 999,
        "meta_rev_at_epoch": 87018,
        "meta_bstar": 0.00034283883,
        "meta_mean_motion_dot": 7.84e-06,
        "meta_mean_motion_ddot": 0,
        "tle_line1": "1 34567U 93036VD  25339.28568678  .00000784  00000+0  34284-3 0  9990",
        "tle_line2": "2 34567  74.0399 170.1957 0074623 246.0221 287.4397 14.24004779870180"
      },
      "geometry": {
        "type": "Point",
        "coordinates": [
          3.1851449027374,
          -39.99445994233395
        ]
      }
    },
    {
      "type": "Feature",
      "properties": {
        "norad_id": 34569,
        "name": "COSMOS 2251 DEB",
        "group": "cosmos-2251-debris",
        "lat": 8.796928921465902,
        "lon": -146.74541607671097,
        "alt_km": 714.0858157713583,
        "timestamp": "2025-12-05T18:53:13.676347+00:00",
        "meta_object_name": "COSMOS 2251 DEB",
        "meta_object_id": "1993-036VF",
        "meta_epoch": "2025-12-04T17:50:11.065632",
        "meta_mean_motion": 14.24718187,
        "meta_eccentricity": 0.01569158,
        "meta_inclination": 73.991,
        "meta_ra_of_asc_node": 212.5947,
        "meta_arg_of_pericenter": 42.829,
        "meta_mean_anomaly": 15.9463,
        "meta_ephemeris_type": 0,
        "meta_classification_type": "U",
        "meta_norad_cat_id": 34569,
        "meta_element_set_no": 999,
        "meta_rev_at_epoch": 86854,
        "meta_bstar": 0.0010862471,
        "meta_mean_motion_dot": 2.85e-05,
        "meta_mean_motion_ddot": 0,
        "tle_line1": "1 34569U 93036VF  25338.74318363  .00002850  00000+0  10862-2 0  9997",
        "tle_line2": "2 34569  73.9910 212.5947 0156915  42.8290  15.9463 14.24718187868542"
      },
      "geometry": {
        "type": "Point",
        "coordinates": [
          -146.74541607671097,
          8.796928921465902
        ]
      }
    }
  ]
}